OBJECT_NAME,OBJECT_ID,EPOCH,MEAN_MOTION,ECCENTRICITY,INCLINATION,RA_OF_ASC_NODE,ARG_OF_PERICENTER,MEAN_ANOMALY,EPHEMERIS_TYPE,CLASSIFICATION_TYPE,NORAD_CAT_ID,ELEMENT_SET_NO,REV_AT_EPOCH,BSTAR,MEAN_MOTION_DOT,MEAN_MOTION_DDOT
STARLINK-1456,2020-035S,2026-07-19T04:51:23.333760,15.72492227,.00013746,53.0390,124.0851,108.0914,252.0253,0,U,45673,999,33957,.31861256E-3,.43001E-3,0
STARLINK-1458,2020-035U,2026-07-19T08:00:01.999872,15.68567543,.00017684,53.0427,140.6474,82.4868,329.9231,0,U,45675,999,585,.3502417E-2,.425789E-2,0
STARLINK-1460,2020-035V,2026-07-19T04:38:50.635104,15.38726601,.00044132,53.1555,171.1079,41.7696,318.3644,0,U,45676,999,33889,.76967516E-3,.29625E-3,0
STARLINK-1392,2020-035W,2026-07-19T04:25:24.693312,15.42251017,.00052827,53.1514,168.7590,33.3416,326.7922,0,U,45677,999,33896,.59232732E-3,.25537E-3,0
STARLINK-1394,2020-035Y,2026-07-19T04:03:49.783680,15.70903794,.00011877,53.0385,114.8419,119.5279,240.5856,0,U,45679,999,33969,.30297126E-3,.38161E-3,0
STARLINK-1402,2020-035AE,2026-07-19T00:11:40.488864,15.67946796,.00009835,53.0392,108.1878,136.2498,223.8596,0,U,45685,999,33978,.28124807E-3,.31236E-3,0
STARLINK-1404,2020-035AF,2026-07-19T03:25:23.425536,15.48353649,.00046959,53.1552,148.7947,25.5885,334.5355,0,U,45686,999,33924,.79809453E-3,.42729E-3,0
STARLINK-1413,2020-035AJ,2026-07-19T07:14:19.561056,15.38419303,.00049831,53.1557,155.2919,39.7144,320.4225,0,U,45689,999,33908,.77347676E-3,.29475E-3,0
STARLINK-1417,2020-035AN,2026-07-19T06:43:55.364160,15.18599236,.00029683,53.0497,174.9932,335.3365,24.7487,0,U,45693,999,33885,.85965998E-3,.17729E-3,0
STARLINK-1420,2020-035AQ,2026-07-19T02:04:04.163520,15.75346946,.000118,53.0420,97.3356,177.3690,182.7335,0,U,45695,999,33993,.32719007E-3,.50055E-3,0
STARLINK-1422,2020-035AR,2026-07-19T03:26:53.447424,15.40266140,.00018543,53.1545,155.6419,92.0908,268.0309,0,U,45696,999,33914,.66420017E-3,.26832E-3,0
STARLINK-1351,2020-035AS,2026-07-19T00:22:50.931264,15.70319552,.00010918,53.0405,99.2492,23.5662,336.5404,0,U,45697,999,33990,.3004043E-3,.36904E-3,0
STARLINK-1400,2020-035AV,2026-07-19T06:36:06.891264,15.75255720,.00014417,53.0415,99.6863,146.9506,213.1603,0,U,45700,999,33991,.32517147E-3,.4954E-3,0
STARLINK-1403,2020-035AW,2026-07-19T05:14:49.154208,15.37215251,.00047127,53.1516,143.5066,44.0074,316.1304,0,U,45701,999,33931,.78112431E-3,.28614E-3,0
STARLINK-1407,2020-035AY,2026-07-19T05:14:39.288192,15.81348135,.00044036,53.0265,24.4588,194.3912,165.6984,0,U,45703,999,34096,.34501347E-3,.69508E-3,0
STARLINK-1423,2020-035BF,2026-07-18T22:39:48.246624,15.73694027,.00030564,53.0405,97.6789,192.6448,167.4494,0,U,45710,999,33990,.31675318E-3,.4504E-3,0
STARLINK-1433,2020-035BG,2026-07-19T05:13:03.498240,15.79647814,.00013258,53.0411,93.8413,188.0096,172.0903,0,U,45711,999,33998,.31060362E-3,.57667E-3,0
STARLINK-1434,2020-035BH,2026-07-19T02:48:10.645632,15.37667574,.00030209,53.0486,125.9495,99.2621,260.8723,0,U,45712,999,33954,.70646284E-3,.26216E-3,0
HAIYANG-1D,2020-036A,2026-07-19T06:35:57.827040,14.34183255,.00039666,98.4562,141.2587,62.4227,297.7361,0,U,45721,999,31957,.9834274E-4,.233E-5,0
ANDESITE,2020-037D,2026-07-19T01:36:01.571040,15.05835112,.00104164,97.7853,33.2975,66.7676,293.4646,0,U,45726,999,33046,.89933037E-4,.1242E-4,0
M2 PATHFINDER,2020-037E,2026-07-19T02:22:26.431392,15.04798236,.00125495,97.8140,31.6917,50.1825,310.0503,0,U,45727,999,33029,.68316464E-4,.901E-5,0
STARLINK-1465,2020-038B,2026-07-18T17:06:27.444960,15.72885092,.00026419,53.0425,303.3040,328.4124,31.6735,0,U,45731,999,33685,.31516714E-3,.4326E-3,0
STARLINK-1471,2020-038F,2026-07-19T05:47:01.024512,15.56240799,.00027945,53.0421,228.4575,0.7907,359.3107,0,U,45735,999,33796,.53817644E-3,.38152E-3,0
STARLINK-1480,2020-038M,2026-07-19T06:58:02.997408,15.69405286,.0001503,53.0461,295.1297,126.4769,233.6386,0,U,45741,999,33703,.28703558E-3,.33896E-3,0
STARLINK-1500,2020-038Q,2026-07-18T16:13:55.331040,15.41120456,.00025392,53.0346,295.2283,340.8463,19.2445,0,U,45744,999,33697,.35797357E-3,.1467E-3,0
STARLINK-1504,2020-038S,2026-07-19T05:29:35.768544,15.61795064,.00022716,53.0175,223.3846,5.5957,354.5080,0,U,45746,999,33801,.2289116E-3,.19714E-3,0
STARLINK-1506,2020-038T,2026-07-18T16:24:59.473152,15.29335450,.0002982,53.0758,314.8775,334.1025,25.9824,0,U,45747,999,33671,.67904783E-4,.1602E-4,0
STARLINK-1464,2020-038X,2026-07-18T16:12:13.783392,15.56285734,.00019654,53.0457,294.8504,133.0207,227.0969,0,U,45751,999,33698,.23513995E-3,.16374E-3,0
STARLINK-1477,2020-038AA,2026-07-18T02:05:52.770912,15.20943650,.00006949,53.0508,337.2312,20.5791,339.5232,0,U,45754,999,33633,.84131473E-3,.18584E-3,0
STARLINK-1478,2020-038AB,2026-07-18T05:56:23.202528,15.75591972,.00038681,53.0440,276.6007,11.8360,348.2749,0,U,45755,999,33718,.32412501E-3,.50134E-3,0
