STARLINK-1456           
1 45673U 20035S   26200.20235340  .00043001  00000+0  31861-3 0  9993
2 45673  53.0390 124.0851 0001374 108.0914 252.0253 15.72492227339573
STARLINK-1458           
1 45675U 20035U   26200.33335648  .00425789  00000+0  35024-2 0  9992
2 45675  53.0427 140.6474 0001768  82.4868 329.9231 15.68567543  5851
STARLINK-1460           
1 45676U 20035V   26200.19364161  .00029625  00000+0  76968-3 0  9991
2 45676  53.1555 171.1079 0004413  41.7696 318.3644 15.38726601338894
STARLINK-1392           
1 45677U 20035W   26200.18431358  .00025537  00000+0  59233-3 0  9998
2 45677  53.1514 168.7590 0005282  33.3416 326.7922 15.42251017338961
STARLINK-1394           
1 45679U 20035Y   26200.16932620  .00038161  00000+0  30297-3 0  9992
2 45679  53.0385 114.8419 0001187 119.5279 240.5856 15.70903794339691
STARLINK-1402           
1 45685U 20035AE  26200.00810751  .00031236  00000+0  28125-3 0  9995
2 45685  53.0392 108.1878 0000983 136.2498 223.8596 15.67946796339783
STARLINK-1404           
1 45686U 20035AF  26200.14263224  .00042729  00000+0  79809-3 0  9992
2 45686  53.1552 148.7947 0004695  25.5885 334.5355 15.48353649339246
STARLINK-1413           
1 45689U 20035AJ  26200.30161529  .00029475  00000+0  77348-3 0  9997
2 45689  53.1557 155.2919 0004983  39.7144 320.4225 15.38419303339082
STARLINK-1417           
1 45693U 20035AN  26200.28050190  .00017729  00000+0  85966-3 0  9994
2 45693  53.0497 174.9932 0002968 335.3365  24.7487 15.18599236338853
STARLINK-1420           
1 45695U 20035AQ  26200.08615930  .00050055  00000+0  32719-3 0  9990
2 45695  53.0420  97.3356 0001180 177.3690 182.7335 15.75346946339937
STARLINK-1422           
1 45696U 20035AR  26200.14367416  .00026832  00000+0  66420-3 0  9993
2 45696  53.1545 155.6419 0001854  92.0908 268.0309 15.40266140339149
STARLINK-1351           
1 45697U 20035AS  26200.01586726  .00036904  00000+0  30040-3 0  9997
2 45697  53.0405  99.2492 0001091  23.5662 336.5404 15.70319552339907
STARLINK-1400           
1 45700U 20035AV  26200.27507976  .00049540  00000+0  32517-3 0  9991
2 45700  53.0415  99.6863 0001441 146.9506 213.1603 15.75255720339918
STARLINK-1403           
1 45701U 20035AW  26200.21862447  .00028614  00000+0  78112-3 0  9993
2 45701  53.1516 143.5066 0004712  44.0074 316.1304 15.37215251339317
STARLINK-1407           
1 45703U 20035AY  26200.21851028  .00069508  00000+0  34501-3 0  9999
2 45703  53.0265  24.4588 0004403 194.3912 165.6984 15.81348135340963
STARLINK-1423           
1 45710U 20035BF  26199.94430841  .00045040  00000+0  31675-3 0  9994
2 45710  53.0405  97.6789 0003056 192.6448 167.4494 15.73694027339903
STARLINK-1433           
1 45711U 20035BG  26200.21740160  .00057667  00000+0  31060-3 0  9992
2 45711  53.0411  93.8413 0001325 188.0096 172.0903 15.79647814339981
STARLINK-1434           
1 45712U 20035BH  26200.11678988  .00026216  00000+0  70646-3 0  9999
2 45712  53.0486 125.9495 0003020  99.2621 260.8723 15.37667574339549
HAIYANG-1D              
1 45721U 20036A   26200.27497485  .00000233  00000+0  98343-4 0  9994
2 45721  98.4562 141.2587 0003966  62.4227 297.7361 14.34183255319576
ANDESITE                
1 45726U 20037D   26200.06668485  .00001242  00000+0  89933-4 0  9993
2 45726  97.7853  33.2975 0010416  66.7676 293.4646 15.05835112330465
M2 PATHFINDER           
1 45727U 20037E   26200.09891703  .00000901  00000+0  68316-4 0  9991
2 45727  97.8140  31.6917 0012549  50.1825 310.0503 15.04798236330299
STARLINK-1465           
1 45731U 20038B   26199.71281765  .00043260  00000+0  31517-3 0  9991
2 45731  53.0425 303.3040 0002641 328.4124  31.6735 15.72885092336858
STARLINK-1471           
1 45735U 20038F   26200.24098408  .00038152  00000+0  53818-3 0  9998
2 45735  53.0421 228.4575 0002794   0.7907 359.3107 15.56240799337963
STARLINK-1480           
1 45741U 20038M   26200.29031247  .00033896  00000+0  28704-3 0  9994
2 45741  53.0461 295.1297 0001503 126.4769 233.6386 15.69405286337034
STARLINK-1500           
1 45744U 20038Q   26199.67633485  .00014670  00000+0  35797-3 0  9997
2 45744  53.0346 295.2283 0002539 340.8463  19.2445 15.41120456336977
STARLINK-1504           
1 45746U 20038S   26200.22888621  .00019714  00000+0  22891-3 0  9992
2 45746  53.0175 223.3846 0002271   5.5957 354.5080 15.61795064338014
STARLINK-1506           
1 45747U 20038T   26199.68402168  .00001602  00000+0  67905-4 0  9991
2 45747  53.0758 314.8775 0002982 334.1025  25.9824 15.29335450336718
STARLINK-1464           
1 45751U 20038X   26199.67515953  .00016374  00000+0  23514-3 0  9991
2 45751  53.0457 294.8504 0001965 133.0207 227.0969 15.56285734336987
STARLINK-1477           
1 45754U 20038AA  26199.08741633  .00018584  00000+0  84131-3 0  9992
2 45754  53.0508 337.2312 0000694  20.5791 339.5232 15.20943650336332
STARLINK-1478           
1 45755U 20038AB  26199.24749077  .00050134  00000+0  32413-3 0  9994
2 45755  53.0440 276.6007 0003868  11.8360 348.2749 15.75591972337186
